RSP-03                  
1 65732U 98067XL  26032.78108518  .00433940  84568-4  12074-2 0  9998
2 65732  51.6169 232.7787 0005295 230.3741 129.6799 15.93158618 21227
YOTSUBA-KULOVER         
1 65941U 98067XN  26032.83850360  .00094694  00000+0  79644-3 0  9995
2 65941  51.6243 241.5046 0004291 204.5834 155.4959 15.69081951 17856
BOTAN                   
1 65942U 98067XP  26032.95629704  .00233928  00000+0  11904-2 0  9994
2 65942  51.6181 237.7572 0005708 221.3112 138.7459 15.80194193 17911
E-KAGAKU-1              
1 65943U 98067XQ  26032.01087652  .00092603  00000+0  78708-3 0  9991
2 65943  51.6263 245.7378 0003311 210.8324 149.2478 15.68840331 17727
HRC MONOBLOCK CAMERA    
1 66052U 98067XR  26032.96166787  .00037542  00000+0  48608-3 0  9991
2 66052  51.6276 245.3353 0000321  23.0063 337.0944 15.58516654 16815
HTV-X1                  
1 66174U 25241A   26032.88782213  .00007269  00000+0  14305-3 0  9999
2 66174  51.6312 249.3384 0011111  54.7712 305.4314 15.48328191   516
SZ-21 MODULE            
1 66515U 25246C   26032.43055753  .00028539  00000+0  27563-3 0  9999
2 66515  41.4757  66.0954 0003343 264.6258  95.4202 15.65808489 12389
SHENZHOU-22             
1 66645U 25272A   26031.38642198  .00028253  00000+0  32371-3 0  9996
2 66645  41.4674  74.8264 0008909  46.9753 313.1831 15.61427822267649
SOYUZ-MS 28             
1 66664U 25275A   26032.88782213  .00007269  00000+0  14305-3 0  9990
2 66664  51.6312 249.3384 0011111  54.7712 305.4314 15.48328191  1285
DUPLEX                  
1 66906U 98067XS  26032.85300933  .00025430  00000+0  39653-3 0  9993
2 66906  51.6288 248.3595 0001588  81.2348 278.8822 15.53680482  9551
1998-067XT              
1 66907U 98067XT  26032.80732681  .00079048  00000+0  95308-3 0  9991
2 66907  51.6263 247.3031 0002685 167.8683 192.2376 15.60073501  9561
1998-067XU              
1 66908U 98067XU  26032.87095771  .00085432  00000+0  10270-2 0  9999
2 66908  51.6258 246.9756 0002563 169.6726 190.4320 15.60118981  9570
