CCSDS_OMM_VERS = 2.0
CREATION_DATE  = 
ORIGINATOR     = 

OBJECT_NAME    = RSP-03
OBJECT_ID      = 1998-067XL
CENTER_NAME    = EARTH
REF_FRAME      = TEME
TIME_SYSTEM    = UTC
MEAN_ELEMENT_THEORY = SGP/SGP4

EPOCH          = 2026-02-01T18:44:45.759552
MEAN_MOTION    = 15.93158618
ECCENTRICITY   = .00052959
INCLINATION    = 51.6169
RA_OF_ASC_NODE = 232.7787
ARG_OF_PERICENTER = 230.3741
MEAN_ANOMALY   = 129.6799

EPHEMERIS_TYPE = 0
CLASSIFICATION_TYPE = U
NORAD_CAT_ID   = 65732
ELEMENT_SET_NO = 999
REV_AT_EPOCH   = 2122
BSTAR          = .12074423E-2
MEAN_MOTION_DOT = .43394E-2
MEAN_MOTION_DDOT = .84568261E-4

CCSDS_OMM_VERS = 2.0
CREATION_DATE  = 
ORIGINATOR     = 

OBJECT_NAME    = YOTSUBA-KULOVER
OBJECT_ID      = 1998-067XN
CENTER_NAME    = EARTH
REF_FRAME      = TEME
TIME_SYSTEM    = UTC
MEAN_ELEMENT_THEORY = SGP/SGP4

EPOCH          = 2026-02-01T20:07:26.711040
MEAN_MOTION    = 15.69081951
ECCENTRICITY   = .00042918
INCLINATION    = 51.6243
RA_OF_ASC_NODE = 241.5046
ARG_OF_PERICENTER = 204.5834
MEAN_ANOMALY   = 155.4959

EPHEMERIS_TYPE = 0
CLASSIFICATION_TYPE = U
NORAD_CAT_ID   = 65941
ELEMENT_SET_NO = 999
REV_AT_EPOCH   = 1785
BSTAR          = .79644453E-3
MEAN_MOTION_DOT = .94694E-3
MEAN_MOTION_DDOT = 0

CCSDS_OMM_VERS = 2.0
CREATION_DATE  = 
ORIGINATOR     = 

OBJECT_NAME    = BOTAN
OBJECT_ID      = 1998-067XP
CENTER_NAME    = EARTH
REF_FRAME      = TEME
TIME_SYSTEM    = UTC
MEAN_ELEMENT_THEORY = SGP/SGP4

EPOCH          = 2026-02-01T22:57:04.064256
MEAN_MOTION    = 15.80194193
ECCENTRICITY   = .0005708
INCLINATION    = 51.6181
RA_OF_ASC_NODE = 237.7572
ARG_OF_PERICENTER = 221.3112
MEAN_ANOMALY   = 138.7459

EPHEMERIS_TYPE = 0
CLASSIFICATION_TYPE = U
NORAD_CAT_ID   = 65942
ELEMENT_SET_NO = 999
REV_AT_EPOCH   = 1791
BSTAR          = .11904331E-2
MEAN_MOTION_DOT = .233928E-2
MEAN_MOTION_DDOT = 0

CCSDS_OMM_VERS = 2.0
CREATION_DATE  = 
ORIGINATOR     = 

OBJECT_NAME    = E-KAGAKU-1
OBJECT_ID      = 1998-067XQ
CENTER_NAME    = EARTH
REF_FRAME      = TEME
TIME_SYSTEM    = UTC
MEAN_ELEMENT_THEORY = SGP/SGP4

EPOCH          = 2026-02-01T00:15:39.731328
MEAN_MOTION    = 15.68840331
ECCENTRICITY   = .00033114
INCLINATION    = 51.6263
RA_OF_ASC_NODE = 245.7378
ARG_OF_PERICENTER = 210.8324
MEAN_ANOMALY   = 149.2478

EPHEMERIS_TYPE = 0
CLASSIFICATION_TYPE = U
NORAD_CAT_ID   = 65943
ELEMENT_SET_NO = 999
REV_AT_EPOCH   = 1772
BSTAR          = .78708321E-3
MEAN_MOTION_DOT = .92603E-3
MEAN_MOTION_DDOT = 0

CCSDS_OMM_VERS = 2.0
CREATION_DATE  = 
ORIGINATOR     = 

OBJECT_NAME    = HRC MONOBLOCK CAMERA
OBJECT_ID      = 1998-067XR
CENTER_NAME    = EARTH
REF_FRAME      = TEME
TIME_SYSTEM    = UTC
MEAN_ELEMENT_THEORY = SGP/SGP4

EPOCH          = 2026-02-01T23:04:48.103968
MEAN_MOTION    = 15.58516654
ECCENTRICITY   = .00003218
INCLINATION    = 51.6276
RA_OF_ASC_NODE = 245.3353
ARG_OF_PERICENTER = 23.0063
MEAN_ANOMALY   = 337.0944

EPHEMERIS_TYPE = 0
CLASSIFICATION_TYPE = U
NORAD_CAT_ID   = 66052
ELEMENT_SET_NO = 999
REV_AT_EPOCH   = 1681
BSTAR          = .48608411E-3
MEAN_MOTION_DOT = .37542E-3
MEAN_MOTION_DDOT = 0

CCSDS_OMM_VERS = 2.0
CREATION_DATE  = 
ORIGINATOR     = 

OBJECT_NAME    = HTV-X1
OBJECT_ID      = 2025-241A
CENTER_NAME    = EARTH
REF_FRAME      = TEME
TIME_SYSTEM    = UTC
MEAN_ELEMENT_THEORY = SGP/SGP4

EPOCH          = 2026-02-01T21:18:27.832032
MEAN_MOTION    = 15.48328191
ECCENTRICITY   = .00111115
INCLINATION    = 51.6312
RA_OF_ASC_NODE = 249.3384
ARG_OF_PERICENTER = 54.7712
MEAN_ANOMALY   = 305.4314

EPHEMERIS_TYPE = 0
CLASSIFICATION_TYPE = U
NORAD_CAT_ID   = 66174
ELEMENT_SET_NO = 999
REV_AT_EPOCH   = 51
BSTAR          = .14305413E-3
MEAN_MOTION_DOT = .7269E-4
MEAN_MOTION_DDOT = 0

CCSDS_OMM_VERS = 2.0
CREATION_DATE  = 
ORIGINATOR     = 

OBJECT_NAME    = SZ-21 MODULE
OBJECT_ID      = 2025-246C
CENTER_NAME    = EARTH
REF_FRAME      = TEME
TIME_SYSTEM    = UTC
MEAN_ELEMENT_THEORY = SGP/SGP4

EPOCH          = 2026-02-01T10:20:00.170592
MEAN_MOTION    = 15.65808489
ECCENTRICITY   = .00033432
INCLINATION    = 41.4757
RA_OF_ASC_NODE = 66.0954
ARG_OF_PERICENTER = 264.6258
MEAN_ANOMALY   = 95.4202

EPHEMERIS_TYPE = 0
CLASSIFICATION_TYPE = U
NORAD_CAT_ID   = 66515
ELEMENT_SET_NO = 999
REV_AT_EPOCH   = 1238
BSTAR          = .27562997E-3
MEAN_MOTION_DOT = .28539E-3
MEAN_MOTION_DDOT = 0

CCSDS_OMM_VERS = 2.0
CREATION_DATE  = 
ORIGINATOR     = 

OBJECT_NAME    = SHENZHOU-22
OBJECT_ID      = 2025-272A
CENTER_NAME    = EARTH
REF_FRAME      = TEME
TIME_SYSTEM    = UTC
MEAN_ELEMENT_THEORY = SGP/SGP4

EPOCH          = 2026-01-31T09:16:26.859072
MEAN_MOTION    = 15.61427822
ECCENTRICITY   = .00089098
INCLINATION    = 41.4674
RA_OF_ASC_NODE = 74.8264
ARG_OF_PERICENTER = 46.9753
MEAN_ANOMALY   = 313.1831

EPHEMERIS_TYPE = 0
CLASSIFICATION_TYPE = U
NORAD_CAT_ID   = 66645
ELEMENT_SET_NO = 999
REV_AT_EPOCH   = 26764
BSTAR          = .32370793E-3
MEAN_MOTION_DOT = .28253E-3
MEAN_MOTION_DDOT = 0

CCSDS_OMM_VERS = 2.0
CREATION_DATE  = 
ORIGINATOR     = 

OBJECT_NAME    = SOYUZ-MS 28
OBJECT_ID      = 2025-275A
CENTER_NAME    = EARTH
REF_FRAME      = TEME
TIME_SYSTEM    = UTC
MEAN_ELEMENT_THEORY = SGP/SGP4

EPOCH          = 2026-02-01T21:18:27.832032
MEAN_MOTION    = 15.48328191
ECCENTRICITY   = .00111115
INCLINATION    = 51.6312
RA_OF_ASC_NODE = 249.3384
ARG_OF_PERICENTER = 54.7712
MEAN_ANOMALY   = 305.4314

EPHEMERIS_TYPE = 0
CLASSIFICATION_TYPE = U
NORAD_CAT_ID   = 66664
ELEMENT_SET_NO = 999
REV_AT_EPOCH   = 128
BSTAR          = .14305413E-3
MEAN_MOTION_DOT = .7269E-4
MEAN_MOTION_DDOT = 0

CCSDS_OMM_VERS = 2.0
CREATION_DATE  = 
ORIGINATOR     = 

OBJECT_NAME    = DUPLEX
OBJECT_ID      = 1998-067XS
CENTER_NAME    = EARTH
REF_FRAME      = TEME
TIME_SYSTEM    = UTC
MEAN_ELEMENT_THEORY = SGP/SGP4

EPOCH          = 2026-02-01T20:28:20.006112
MEAN_MOTION    = 15.53680482
ECCENTRICITY   = .00015886
INCLINATION    = 51.6288
RA_OF_ASC_NODE = 248.3595
ARG_OF_PERICENTER = 81.2348
MEAN_ANOMALY   = 278.8822

EPHEMERIS_TYPE = 0
CLASSIFICATION_TYPE = U
NORAD_CAT_ID   = 66906
ELEMENT_SET_NO = 999
REV_AT_EPOCH   = 955
BSTAR          = .39652691E-3
MEAN_MOTION_DOT = .2543E-3
MEAN_MOTION_DDOT = 0

CCSDS_OMM_VERS = 2.0
CREATION_DATE  = 
ORIGINATOR     = 

OBJECT_NAME    = 1998-067XT
OBJECT_ID      = 1998-067XT
CENTER_NAME    = EARTH
REF_FRAME      = TEME
TIME_SYSTEM    = UTC
MEAN_ELEMENT_THEORY = SGP/SGP4

EPOCH          = 2026-02-01T19:22:33.036384
MEAN_MOTION    = 15.60073501
ECCENTRICITY   = .00026857
INCLINATION    = 51.6263
RA_OF_ASC_NODE = 247.3031
ARG_OF_PERICENTER = 167.8683
MEAN_ANOMALY   = 192.2376

EPHEMERIS_TYPE = 0
CLASSIFICATION_TYPE = U
NORAD_CAT_ID   = 66907
ELEMENT_SET_NO = 999
REV_AT_EPOCH   = 956
BSTAR          = .95308074E-3
MEAN_MOTION_DOT = .79048E-3
MEAN_MOTION_DDOT = 0

CCSDS_OMM_VERS = 2.0
CREATION_DATE  = 
ORIGINATOR     = 

OBJECT_NAME    = 1998-067XU
OBJECT_ID      = 1998-067XU
CENTER_NAME    = EARTH
REF_FRAME      = TEME
TIME_SYSTEM    = UTC
MEAN_ELEMENT_THEORY = SGP/SGP4

EPOCH          = 2026-02-01T20:54:10.746144
MEAN_MOTION    = 15.60118981
ECCENTRICITY   = .00025636
INCLINATION    = 51.6258
RA_OF_ASC_NODE = 246.9756
ARG_OF_PERICENTER = 169.6726
MEAN_ANOMALY   = 190.4320

EPHEMERIS_TYPE = 0
CLASSIFICATION_TYPE = U
NORAD_CAT_ID   = 66908
ELEMENT_SET_NO = 999
REV_AT_EPOCH   = 957
BSTAR          = .10269586E-2
MEAN_MOTION_DOT = .85432E-3
MEAN_MOTION_DDOT = 0

